      2.10          N: GNSS NAV DATA                        RINEX VERSION / TYPE
fic2rin                                 06/05/2022 00:17:41 PGM / RUN BY / DATE
                                                            END OF HEADER
8  22  6  4  1 59 44.0 -.707125291228D-04 -.159161572810D-11  .000000000000D+00
     .390000000000D+02  .104343750000D+03  .417803117463D-08  .179259214852D+01
     .540912151337D-05  .743886979762D-02  .654533505440D-05  .515377668381D+04
     .525584000000D+06 -.391155481339D-07  .140979486149D+01  .651925802231D-07
     .963327944716D+00  .253875000000D+03  .171852472905D+00 -.798747556756D-08
     .250010413937D-10  .100000000000D+01  .221200000000D+04  .000000000000D+00
     .240000000000D+01  .000000000000D+00  .512227416039D-08  .390000000000D+02
     .518400000000D+06  .400000000000D+01
10 22  6  4  4  0  0.0 -.440990086645D-03 -.153477230924D-10  .000000000000D+00
     .740000000000D+02 -.951875000000D+02  .411017120513D-08 -.134923005593D+01
    -.494346022606D-05  .761355983559D-02  .753626227379D-05  .515368580055D+04
     .532800000000D+06  .119209289551D-06 -.275990554437D+01 -.931322574615D-08
     .974067204392D+00  .236500000000D+03 -.249627143298D+01 -.776889503423D-08
     .179293182566D-09  .100000000000D+01  .221200000000D+04  .000000000000D+00
     .240000000000D+01  .000000000000D+00  .232830643654D-08  .740000000000D+02
     .525600000000D+06  .400000000000D+01
8  22  6  4  4  0  0.0 -.707237049937D-04 -.159161572810D-11  .000000000000D+00
     .680000000000D+02  .111156250000D+03  .416445918073D-08  .284515276666D+01
     .569596886635D-05  .743898400106D-02  .631995499134D-05  .515377541733D+04
     .532800000000D+06 -.651925802231D-07  .140973715815D+01 -.279396772385D-07
     .963328576696D+00  .259406250000D+03  .171742146938D+00 -.791211528565D-08
     .692886004340D-10  .100000000000D+01  .221200000000D+04  .000000000000D+00
     .240000000000D+01  .000000000000D+00  .512227416039D-08  .680000000000D+02
     .525600000000D+06  .400000000000D+01
4  22  6  4  4  0  0.0 -.160692725331D-03  .386535248253D-11  .000000000000D+00
     .640000000000D+02 -.230625000000D+02  .466983737461D-08  .243151984512D+01
    -.108405947685D-05  .182839063928D-02  .862777233124D-05  .515360899353D+04
     .532800000000D+06 -.745058059692D-07 -.167587249518D+01  .577419996262D-07
     .961006761858D+00  .215218750000D+03 -.296856889971D+01 -.786747056887D-08
     .475734101949D-09  .100000000000D+01  .221200000000D+04  .000000000000D+00
     .240000000000D+01  .000000000000D+00 -.465661287308D-08  .640000000000D+02
     .525600000000D+06  .400000000000D+01
6  22  6  4  4  0  0.0  .329560134560D-03  .152340362547D-10  .000000000000D+00
     .730000000000D+02 -.146250000000D+02  .392909223389D-08  .901340702950D+00
    -.612810254097D-06  .252859632019D-02  .233389437199D-05  .515373466110D+04
     .532800000000D+06  .223517417908D-07  .248417896384D+01 -.447034835815D-07
     .987210642657D+00  .345531250000D+03 -.855060781879D+00 -.802247702551D-08
     .113576159474D-09  .100000000000D+01  .221200000000D+04  .000000000000D+00
     .240000000000D+01  .000000000000D+00  .372529029846D-08  .730000000000D+02
     .525600000000D+06  .400000000000D+01
29 22  6  4  4  0  0.0 -.520513858646D-03 -.386535248253D-11  .000000000000D+00
     .130000000000D+02  .907500000000D+02  .382194491363D-08  .297750760713D+01
     .476278364658D-05  .220441073179D-02  .545196235180D-05  .515370151711D+04
     .532800000000D+06 -.745058059692D-08  .150658668279D+01 -.335276126862D-07
     .980598077389D+00  .286250000000D+03  .228606970224D+01 -.777210945384D-08
     .517878714584D-10  .100000000000D+01  .221200000000D+04  .000000000000D+00
     .240000000000D+01  .000000000000D+00 -.102445483208D-07  .130000000000D+02
     .525600000000D+06  .400000000000D+01
30 22  6  4  4  0  0.0 -.530260615051D-03 -.125055521494D-11  .000000000000D+00
     .480000000000D+02  .234375000000D+01  .543879797634D-08 -.233254709823D-01
    -.186264514923D-08  .587835861370D-02  .583380460739D-05  .515375329018D+04
     .532800000000D+06 -.186264514923D-08 -.646134720093D+00  .428408384323D-07
     .935816316094D+00  .249562500000D+03 -.267961327535D+01 -.842142221461D-08
    -.225366530278D-09  .100000000000D+01  .221200000000D+04  .000000000000D+00
     .240000000000D+01  .000000000000D+00  .372529029846D-08  .480000000000D+02
     .525600000000D+06  .400000000000D+01
24 22  6  4  4  0  0.0  .228204764426D-03 -.784439180279D-11  .000000000000D+00
     .250000000000D+02  .421875000000D+01  .561416242383D-08  .986726462123D+00
     .439584255219D-06  .125037839171D-01  .616163015366D-05  .515367927933D+04
     .532800000000D+06 -.651925802231D-07 -.742217198748D+00  .178813934326D-06
     .934092852305D+00  .247937500000D+03  .816026838885D+00 -.863178812005D-08
    -.228580949885D-09  .100000000000D+01  .221200000000D+04  .000000000000D+00
     .240000000000D+01  .000000000000D+00  .279396772385D-08  .250000000000D+02
     .525600000000D+06  .400000000000D+01
15 22  6  4  4  0  0.0 -.559901818633D-04  .295585778076D-11  .000000000000D+00
     .680000000000D+02 -.295625000000D+02  .528807741251D-08  .188858182112D+01
    -.168941915035D-05  .140887849266D-01  .879913568497D-05  .515379841232D+04
     .532800000000D+06 -.188127160072D-06 -.183867848310D+01 -.363215804100D-06
     .930085982592D+00  .196468750000D+03  .109687441388D+01 -.815426822943D-08
     .446804325479D-09  .100000000000D+01  .221200000000D+04  .000000000000D+00
     .240000000000D+01  .000000000000D+00 -.107102096081D-07  .680000000000D+02
     .525600000000D+06  .400000000000D+01
9  22  6  4  4  0  0.0 -.331375747919D-03  .318323145621D-11  .000000000000D+00
     .370000000000D+02 -.278125000000D+02  .481484341470D-08 -.287433047318D+01
    -.133365392685D-05  .209739420097D-02  .872462987900D-05  .515355537415D+04
     .532800000000D+06  .428408384323D-07 -.172972753773D+01  .111758708954D-06
     .954085588169D+00  .209031250000D+03  .186851628752D+01 -.794568811266D-08
     .472876840076D-09  .100000000000D+01  .221200000000D+04  .000000000000D+00
     .240000000000D+01  .000000000000D+00  .139698386192D-08  .370000000000D+02
     .525600000000D+06  .400000000000D+01
21 22  6  4  4  0  0.0  .161283649504D-03  .113686837722D-12  .000000000000D+00
     .490000000000D+02  .331250000000D+01  .448804408791D-08  .300524248144D+01
     .100582838058D-06  .242717117071D-01  .827014446259D-06  .515374954224D+04
     .532800000000D+06  .150874257088D-06  .239859696299D+01  .352039933205D-06
     .960236032245D+00  .358531250000D+03 -.942472014040D+00 -.801069082028D-08
     .714315468392D-10  .100000000000D+01  .221200000000D+04  .000000000000D+00
     .240000000000D+01  .000000000000D+00 -.102445483208D-07  .490000000000D+02
     .525600000000D+06  .400000000000D+01
20 22  6  4  4  0  0.0  .513251405209D-03 -.102318153949D-11  .000000000000D+00
     .320000000000D+02 -.971250000000D+02  .484341603343D-08  .173206648480D+01
    -.528804957867D-05  .476788706146D-02  .581517815590D-05  .515359160995D+04
     .532800000000D+06  .745058059692D-08 -.291495610762D+01  .465661287308D-07
     .943622401615D+00  .256656250000D+03 -.311958698634D+01 -.821105630917D-08
     .192865176466D-10  .100000000000D+01  .221200000000D+04  .000000000000D+00
     .240000000000D+01  .000000000000D+00 -.838190317154D-08  .320000000000D+02
     .525600000000D+06  .400000000000D+01
31 22  6  4  4  0  0.0 -.180372036994D-03 -.159161572810D-11  .000000000000D+00
     .102000000000D+03  .187500000000D+00  .501163732624D-08 -.465752736974D+00
    -.931322574615D-08  .104254495818D-01  .612623989582D-05  .515373985672D+04
     .532800000000D+06  .143423676491D-06 -.639121318197D+00  .132247805595D-06
     .954869807349D+00  .257687500000D+03  .392744740835D+00 -.821748514838D-08
    -.268225458381D-09  .100000000000D+01  .221200000000D+04  .000000000000D+00
     .240000000000D+01  .000000000000D+00 -.135041773319D-07  .102000000000D+03
     .525600000000D+06  .400000000000D+01
16 22  6  4  4  0  0.0 -.506321433932D-03 -.295585778076D-11  .000000000000D+00
     .760000000000D+02  .536250000000D+02  .403945397376D-08 -.245797939865D+01
     .274926424026D-05  .127146355808D-01  .913813710213D-05  .515366121674D+04
     .532800000000D+06  .124797224998D-06  .473761953058D+00 -.143423676491D-06
     .969363327359D+00  .207406250000D+03  .730528404297D+00 -.751924177803D-08
    -.347157317639D-09  .100000000000D+01  .221200000000D+04  .000000000000D+00
     .240000000000D+01  .000000000000D+00 -.102445483208D-07  .760000000000D+02
     .525600000000D+06  .400000000000D+01
22 22  6  4  4  0  0.0  .270030461252D-03  .625277607469D-11  .000000000000D+00
     .101000000000D+03 -.140625000000D+02  .458411951841D-08  .273218925058D+01
    -.765547156334D-06  .133873422164D-01  .842474400997D-05  .515369746399D+04
     .532800000000D+06  .651925802231D-07 -.162748698003D+01 -.180676579475D-06
     .961078558951D+00  .213062500000D+03 -.184909738713D+01 -.765710466343D-08
     .352157525917D-09  .100000000000D+01  .221200000000D+04  .000000000000D+00
     .340000000000D+01  .000000000000D+00 -.838190317154D-08  .101000000000D+03
     .525600000000D+06  .400000000000D+01
19 22  6  4  4  0  0.0  .166099518538D-03  .500222085975D-11  .000000000000D+00
     .540000000000D+02  .900312500000D+02  .389659088008D-08 -.108187900764D+01
     .479258596897D-05  .927080854308D-02  .607594847679D-05  .515370293999D+04
     .532800000000D+06 -.141561031342D-06  .153813548986D+01  .484287738800D-07
     .977356565453D+00  .274687500000D+03  .207768366057D+01 -.793247327650D-08
     .256796410887D-09  .100000000000D+01  .221200000000D+04  .000000000000D+00
     .240000000000D+01  .000000000000D+00 -.158324837685D-07  .540000000000D+02
     .525600000000D+06  .400000000000D+01
